[{"OBJECT_NAME":"STARLINK-3783","OBJECT_ID":"2022-041X","EPOCH":"2026-03-09T18:47:13.358400","MEAN_MOTION":15.08818025,"ECCENTRICITY":0.00010652,"INCLINATION":53.2158,"RA_OF_ASC_NODE":98.7034,"ARG_OF_PERICENTER":86.9521,"MEAN_ANOMALY":273.1593,"EPHEMERIS_TYPE":0,"CLASSIFICATION_TYPE":"U","NORAD_CAT_ID":52282,"ELEMENT_SET_NO":999,"REV_AT_EPOCH":21451,"BSTAR":-7.9966622e-5,"MEAN_MOTION_DOT":-1.559e-5,"MEAN_MOTION_DDOT":0},{"OBJECT_NAME":"CZ-2C R\/B","OBJECT_ID":"2026-021B","EPOCH":"2026-03-09T21:51:23.415552","MEAN_MOTION":15.24093237,"ECCENTRICITY":0.01506252,"INCLINATION":97.65,"RA_OF_ASC_NODE":144.3935,"ARG_OF_PERICENTER":10.4871,"MEAN_ANOMALY":349.9447,"EPHEMERIS_TYPE":0,"CLASSIFICATION_TYPE":"U","NORAD_CAT_ID":67647,"ELEMENT_SET_NO":999,"REV_AT_EPOCH":573,"BSTAR":0.00038397881,"MEAN_MOTION_DOT":0.00012809,"MEAN_MOTION_DDOT":0}]
